[{"OBJECT_NAME":"SHIYAN-6 01 (SY-6 01)","OBJECT_ID":"2018-094B","EPOCH":"2026-03-09T23:04:36.967872","MEAN_MOTION":15.28649156,"ECCENTRICITY":0.00144834,"INCLINATION":97.3669,"RA_OF_ASC_NODE":84.0964,"ARG_OF_PERICENTER":135.6758,"MEAN_ANOMALY":224.5644,"EPHEMERIS_TYPE":0,"CLASSIFICATION_TYPE":"U","NORAD_CAT_ID":43711,"ELEMENT_SET_NO":999,"REV_AT_EPOCH":40632,"BSTAR":0.00024768444,"MEAN_MOTION_DOT":6.847e-5,"MEAN_MOTION_DDOT":0},{"OBJECT_NAME":"STARLINK-34819","OBJECT_ID":"2025-161AB","EPOCH":"2026-03-09T22:38:59.390016","MEAN_MOTION":15.30207515,"ECCENTRICITY":0.000106,"INCLINATION":53.161,"RA_OF_ASC_NODE":293.3789,"ARG_OF_PERICENTER":78.2475,"MEAN_ANOMALY":281.8644,"EPHEMERIS_TYPE":0,"CLASSIFICATION_TYPE":"U","NORAD_CAT_ID":65040,"ELEMENT_SET_NO":999,"REV_AT_EPOCH":3426,"BSTAR":0.0012268651,"MEAN_MOTION_DOT":0.00036162,"MEAN_MOTION_DDOT":0}]
